[{"OBJECT_NAME":"STARLINK-5924","OBJECT_ID":"2023-037BB","EPOCH":"2026-03-09T21:16:56.793216","MEAN_MOTION":14.98330037,"ECCENTRICITY":0.00029882,"INCLINATION":69.9983,"RA_OF_ASC_NODE":263.9199,"ARG_OF_PERICENTER":270.0052,"MEAN_ANOMALY":90.0765,"EPHEMERIS_TYPE":0,"CLASSIFICATION_TYPE":"U","NORAD_CAT_ID":55963,"ELEMENT_SET_NO":999,"REV_AT_EPOCH":16450,"BSTAR":4.580269e-6,"MEAN_MOTION_DOT":-3.8e-7,"MEAN_MOTION_DDOT":0},{"OBJECT_NAME":"ADRAS-J","OBJECT_ID":"2024-034A","EPOCH":"2026-03-09T21:58:53.298624","MEAN_MOTION":15.13266815,"ECCENTRICITY":0.00758128,"INCLINATION":98.223,"RA_OF_ASC_NODE":88.3954,"ARG_OF_PERICENTER":99.4078,"MEAN_ANOMALY":261.5731,"EPHEMERIS_TYPE":0,"CLASSIFICATION_TYPE":"U","NORAD_CAT_ID":58992,"ELEMENT_SET_NO":999,"REV_AT_EPOCH":11235,"BSTAR":0.00021470617,"MEAN_MOTION_DOT":4.016e-5,"MEAN_MOTION_DDOT":0}]
